[{"OBJECT_ID":"1999-025BRS","OBJECT_NAME":"FENGYUN 1C DEB","NORAD_CAT_ID":"31362","OBJECT_TYPE":"DEBRIS","PERIOD":"101.701","INCLINATION":"98.6591","ECCENTRICITY":"0.00187250","MEAN_MOTION":"14.15909200","TLE_LINE1":"1 31362U 99025BRS 21271.29648378  .00000074  00000-0  59413-4 0  9997","TLE_LINE2":"2 31362  98.6591 289.4214 0018725 182.7894 177.3179 14.15909200748248"},{"OBJECT_ID":"1999-025BRU","OBJECT_NAME":"FENGYUN 1C DEB","NORAD_CAT_ID":"31364","OBJECT_TYPE":"DEBRIS","PERIOD":"103.055","INCLINATION":"99.2741","ECCENTRICITY":"0.01147530","MEAN_MOTION":"13.97315778","TLE_LINE1":"1 31364U 99025BRU 21272.12671632  .00000833  00000-0  59184-3 0  9998","TLE_LINE2":"2 31364  99.2741 342.4033 0114753  62.6690 359.2789 13.97315778734266"},{"OBJECT_ID":"1999-025BRV","OBJECT_NAME":"FENGYUN 1C DEB","NORAD_CAT_ID":"31365","OBJECT_TYPE":"DEBRIS","PERIOD":"101.184","INCLINATION":"98.7687","ECCENTRICITY":"0.00534790","MEAN_MOTION":"14.23156870","TLE_LINE1":"1 31365U 99025BRV 21271.12912256  .00000913  00000-0  41746-3 0  9992","TLE_LINE2":"2 31365  98.7687 333.2957 0053479  41.1453 319.3739 14.23156870746686"},{"OBJECT_ID":"1999-025BRW","OBJECT_NAME":"FENGYUN 1C DEB","NORAD_CAT_ID":"31366","OBJECT_TYPE":"DEBRIS","PERIOD":"100.382","INCLINATION":"98.8589","ECCENTRICITY":"0.00028030","MEAN_MOTION":"14.34522838","TLE_LINE1":"1 31366U 99025BRW 21271.28443913  .00002104  00000-0  76227-3 0  9995","TLE_LINE2":"2 31366  98.8589  23.3540 0002803  28.7764 359.6187 14.34522838749966"},{"OBJECT_ID":"1999-025BRX","OBJECT_NAME":"FENGYUN 1C DEB","NORAD_CAT_ID":"31367","OBJECT_TYPE":"DEBRIS","PERIOD":"100.016","INCLINATION":"98.8805","ECCENTRICITY":"0.01105640","MEAN_MOTION":"14.39763155","TLE_LINE1":"1 31367U 99025BRX 21271.43449500  .00000413  00000-0  13804-3 0  9994","TLE_LINE2":"2 31367  98.8805  90.0004 0110564 274.4323 114.3408 14.39763155763130"},{"OBJECT_ID":"1999-025BRY","OBJECT_NAME":"FENGYUN 1C DEB","NORAD_CAT_ID":"31368","OBJECT_TYPE":"DEBRIS","PERIOD":"101.641","INCLINATION":"99.0025","ECCENTRICITY":"0.00502910","MEAN_MOTION":"14.16753114","TLE_LINE1":"1 31368U 99025BRY 21271.56272587  .00000276  00000-0  15886-3 0  9997","TLE_LINE2":"2 31368  99.0025  35.6482 0050291 349.4580  10.5535 14.16753114751416"},{"OBJECT_ID":"1999-025BRZ","OBJECT_NAME":"FENGYUN 1C DEB","NORAD_CAT_ID":"31369","OBJECT_TYPE":"DEBRIS","PERIOD":"101.617","INCLINATION":"98.5526","ECCENTRICITY":"0.00578980","MEAN_MOTION":"14.17092126","TLE_LINE1":"1 31369U 99025BRZ 21271.27393611  .00000108  00000-0  73387-4 0  9993","TLE_LINE2":"2 31369  98.5526 285.3577 0057898  50.4733  10.1899 14.17092126425524"},{"OBJECT_ID":"1999-025BSA","OBJECT_NAME":"FENGYUN 1C DEB","NORAD_CAT_ID":"31370","OBJECT_TYPE":"DEBRIS","PERIOD":"102.337","INCLINATION":"98.8045","ECCENTRICITY":"0.00339210","MEAN_MOTION":"14.07120200","TLE_LINE1":"1 31370U 99025BSA 21272.29644500  .00000208  00000-0  14923-3 0  9995","TLE_LINE2":"2 31370  98.8045 295.4124 0033921 308.8386  50.9757 14.07120200746952"},{"OBJECT_ID":"1999-025BSB","OBJECT_NAME":"FENGYUN 1C DEB","NORAD_CAT_ID":"31371","OBJECT_TYPE":"DEBRIS","PERIOD":"102.859","INCLINATION":"98.9204","ECCENTRICITY":"0.00759310","MEAN_MOTION":"13.99981165","TLE_LINE1":"1 31371U 99025BSB 21271.13194611 -.00000051  00000-0 -49679-5 0  9997","TLE_LINE2":"2 31371  98.9204 330.2096 0075931 205.3237 154.4198 13.99981165742185"},{"OBJECT_ID":"1999-025BSC","OBJECT_NAME":"FENGYUN 1C DEB","NORAD_CAT_ID":"31372","OBJECT_TYPE":"DEBRIS","PERIOD":"101.989","INCLINATION":"99.3355","ECCENTRICITY":"0.00423020","MEAN_MOTION":"14.11920865","TLE_LINE1":"1 31372U 99025BSC 21271.12179045  .00000802  00000-0  46107-3 0  9994","TLE_LINE2":"2 31372  99.3355 163.4202 0042302  78.7159 281.8760 14.11920865740828"},{"OBJECT_ID":"1999-025BSE","OBJECT_NAME":"FENGYUN 1C DEB","NORAD_CAT_ID":"31374","OBJECT_TYPE":"DEBRIS","PERIOD":"102.290","INCLINATION":"99.6526","ECCENTRICITY":"0.02031570","MEAN_MOTION":"14.07764796","TLE_LINE1":"1 31374U 99025BSE 21269.17847922  .00001603  00000-0  80924-3 0  9999","TLE_LINE2":"2 31374  99.6526 251.2035 0203157 310.4764  47.8847 14.07764796742673"},{"OBJECT_ID":"1999-025BSG","OBJECT_NAME":"FENGYUN 1C DEB","NORAD_CAT_ID":"31376","OBJECT_TYPE":"DEBRIS","PERIOD":"100.179","INCLINATION":"98.9376","ECCENTRICITY":"0.00736790","MEAN_MOTION":"14.37429369","TLE_LINE1":"1 31376U 99025BSG 21271.22771057  .00001119  00000-0  37823-3 0  9997","TLE_LINE2":"2 31376  98.9376  94.2389 0073679 179.3059 180.8241 14.37429369759435"},{"OBJECT_ID":"1999-025BSJ","OBJECT_NAME":"FENGYUN 1C DEB","NORAD_CAT_ID":"31378","OBJECT_TYPE":"DEBRIS","PERIOD":"104.620","INCLINATION":"100.7955","ECCENTRICITY":"0.01767440","MEAN_MOTION":"13.76412497","TLE_LINE1":"1 31378U 99025BSJ 21271.03316374  .00000296  00000-0  31949-3 0  9993","TLE_LINE2":"2 31378 100.7955 293.9998 0176744  88.3432 273.7948 13.76412497730595"},{"OBJECT_ID":"1999-025BSK","OBJECT_NAME":"FENGYUN 1C DEB","NORAD_CAT_ID":"31379","OBJECT_TYPE":"DEBRIS","PERIOD":"94.574","INCLINATION":"99.4774","ECCENTRICITY":"0.00459950","MEAN_MOTION":"15.22614829","TLE_LINE1":"1 31379U 99025BSK 21269.78811341  .00036623  00000-0  15276-2 0  9994","TLE_LINE2":"2 31379  99.4774 103.0445 0045995 295.3222  64.3247 15.22614829777848"},{"OBJECT_ID":"1999-025BSL","OBJECT_NAME":"FENGYUN 1C DEB","NORAD_CAT_ID":"31380","OBJECT_TYPE":"DEBRIS","PERIOD":"97.761","INCLINATION":"96.5475","ECCENTRICITY":"0.00910690","MEAN_MOTION":"14.72986858","TLE_LINE1":"1 31380U 99025BSL 21269.66675700  .00005489  00000-0  80564-3 0  9999","TLE_LINE2":"2 31380  96.5475 225.5971 0091069 146.2261 214.4798 14.72986858443038"},{"OBJECT_ID":"1999-025BSM","OBJECT_NAME":"FENGYUN 1C DEB","NORAD_CAT_ID":"31381","OBJECT_TYPE":"DEBRIS","PERIOD":"100.731","INCLINATION":"98.5752","ECCENTRICITY":"0.02177610","MEAN_MOTION":"14.29550416","TLE_LINE1":"1 31381U 99025BSM 21272.04159879  .00000311  00000-0  11004-3 0  9992","TLE_LINE2":"2 31381  98.5752 357.5779 0217761 252.8262 104.8977 14.29550416755851"},{"OBJECT_ID":"1999-025BSN","OBJECT_NAME":"FENGYUN 1C DEB","NORAD_CAT_ID":"31382","OBJECT_TYPE":"DEBRIS","PERIOD":"97.518","INCLINATION":"96.9178","ECCENTRICITY":"0.00392720","MEAN_MOTION":"14.76651265","TLE_LINE1":"1 31382U 99025BSN 21264.73332988  .00005370  00000-0  76427-3 0  9994","TLE_LINE2":"2 31382  96.9178  79.4849 0039272 282.7001  76.9823 14.76651265425620"},{"OBJECT_ID":"1999-025BSP","OBJECT_NAME":"FENGYUN 1C DEB","NORAD_CAT_ID":"31383","OBJECT_TYPE":"DEBRIS","PERIOD":"102.826","INCLINATION":"99.2086","ECCENTRICITY":"0.01136480","MEAN_MOTION":"14.00425098","TLE_LINE1":"1 31383U 99025BSP 21270.61059229  .00000351  00000-0  25320-3 0  9993","TLE_LINE2":"2 31383  99.2086 305.4041 0113648 244.4612 269.6128 14.00425098738204"},{"OBJECT_ID":"1999-025BSQ","OBJECT_NAME":"FENGYUN 1C DEB","NORAD_CAT_ID":"31384","OBJECT_TYPE":"DEBRIS","PERIOD":"105.151","INCLINATION":"98.4946","ECCENTRICITY":"0.05004340","MEAN_MOTION":"13.69456103","TLE_LINE1":"1 31384U 99025BSQ 21270.78510417  .00001355  00000-0  66187-3 0  9994","TLE_LINE2":"2 31384  98.4946  21.1473 0500434 242.7504 278.7601 13.69456103718903"},{"OBJECT_ID":"1999-025BSR","OBJECT_NAME":"FENGYUN 1C DEB","NORAD_CAT_ID":"31385","OBJECT_TYPE":"DEBRIS","PERIOD":"99.912","INCLINATION":"99.0463","ECCENTRICITY":"0.01384860","MEAN_MOTION":"14.41267957","TLE_LINE1":"1 31385U 99025BSR 21271.20292012  .00000129  00000-0  51157-4 0  9991","TLE_LINE2":"2 31385  99.0463 251.8725 0138486 285.1799  86.1829 14.41267957764652"},{"OBJECT_ID":"1999-025BSS","OBJECT_NAME":"FENGYUN 1C DEB","NORAD_CAT_ID":"31386","OBJECT_TYPE":"DEBRIS","PERIOD":"104.632","INCLINATION":"98.4648","ECCENTRICITY":"0.02191530","MEAN_MOTION":"13.76256416","TLE_LINE1":"1 31386U 99025BSS 21271.37063919  .00000951  00000-0  84882-3 0  9995","TLE_LINE2":"2 31386  98.4648  64.0696 0219153 140.1548 221.5928 13.76256416726664"},{"OBJECT_ID":"1999-025BST","OBJECT_NAME":"FENGYUN 1C DEB","NORAD_CAT_ID":"31387","OBJECT_TYPE":"DEBRIS","PERIOD":"102.067","INCLINATION":"99.2706","ECCENTRICITY":"0.02499590","MEAN_MOTION":"14.10831369","TLE_LINE1":"1 31387U 99025BST 21270.98607635  .00000255  00000-0  12649-3 0  9990","TLE_LINE2":"2 31387  99.2706  78.6672 0249959 154.1099 337.1045 14.10831369746107"},{"OBJECT_ID":"1999-025BSU","OBJECT_NAME":"FENGYUN 1C DEB","NORAD_CAT_ID":"31388","OBJECT_TYPE":"DEBRIS","PERIOD":"102.397","INCLINATION":"98.7654","ECCENTRICITY":"0.00473120","MEAN_MOTION":"14.06295969","TLE_LINE1":"1 31388U 99025BSU 21271.27536088  .00000217  00000-0  15584-3 0  9996","TLE_LINE2":"2 31388  98.7654 285.1600 0047312 204.1786 217.7969 14.06295969748394"},{"OBJECT_ID":"1999-025BSV","OBJECT_NAME":"FENGYUN 1C DEB","NORAD_CAT_ID":"31389","OBJECT_TYPE":"DEBRIS","PERIOD":"101.709","INCLINATION":"99.0635","ECCENTRICITY":"0.00551750","MEAN_MOTION":"14.15798222","TLE_LINE1":"1 31389U 99025BSV 21272.17105310  .00001560  00000-0  80592-3 0  9990","TLE_LINE2":"2 31389  99.0635 354.9366 0055175 310.2639 115.0599 14.15798222746010"},{"OBJECT_ID":"2006-029D","OBJECT_NAME":"SL-24 DEB","NORAD_CAT_ID":"31391","OBJECT_TYPE":"DEBRIS","PERIOD":"93.927","INCLINATION":"64.5036","ECCENTRICITY":"0.00368830","MEAN_MOTION":"15.33110511","TLE_LINE1":"1 31391U 06029D   21271.44342684  .00003847  00000-0  12464-3 0  9994","TLE_LINE2":"2 31391  64.5036 334.2747 0036883 269.9316  89.7588 15.33110511829293"},{"OBJECT_ID":"2006-029E","OBJECT_NAME":"SL-24 DEB","NORAD_CAT_ID":"31392","OBJECT_TYPE":"DEBRIS","PERIOD":"93.982","INCLINATION":"64.5047","ECCENTRICITY":"0.00344600","MEAN_MOTION":"15.32216129","TLE_LINE1":"1 31392U 06029E   21271.47393350  .00003707  00000-0  12408-3 0  9997","TLE_LINE2":"2 31392  64.5047 346.3100 0034460 265.3821  94.3373 15.32216129830278"}]